EARTHCARE               
1 59908U 24101A   24206.36212966  .00019195  00000+0  28426-3 0  9997
2 59908  96.9845 333.2316 0002897 345.4022  14.7150 15.55302993  8762
